{
  "type": "FeatureCollection",
  "features": [
    {
      "type": "Feature",
      "properties": {
        "norad_id": 66566,
        "name": "STARLINK-35871",
        "group": "last-30-days",
        "lat": 42.68960832622343,
        "lon": -143.40598724646975,
        "alt_km": 409.50283795004543,
        "timestamp": "2025-12-10T09:57:43.489366+00:00",
        "meta_object_name": "STARLINK-35871",
        "meta_object_id": "2025-268K",
        "meta_epoch": "2025-12-10T04:00:01.998720",
        "meta_mean_motion": 15.50665565,
        "meta_eccentricity": 0.000179,
        "meta_inclination": 43.0004,
        "meta_ra_of_asc_node": 136.2026,
        "meta_arg_of_pericenter": 273.0409,
        "meta_mean_anomaly": 222.711,
        "meta_ephemeris_type": 0,
        "meta_classification_type": "U",
        "meta_norad_cat_id": 66566,
        "meta_element_set_no": 999,
        "meta_rev_at_epoch": 425,
        "meta_bstar": -0.0033907,
        "meta_mean_motion_dot": -0.00194996,
        "meta_mean_motion_ddot": 0,
        "tle_line1": "1 66566U 25268K   25344.16668980 -.00194996  00000+0 -33907-2 0  9997",
        "tle_line2": "2 66566  43.0004 136.2026 0001790 273.0409 222.7110 15.50665565  4254"
      },
      "geometry": {
        "type": "Point",
        "coordinates": [
          -143.40598724646975,
          42.68960832622343
        ]
      }
    },
    {
      "type": "Feature",
      "properties": {
        "norad_id": 66567,
        "name": "STARLINK-35825",
        "group": "last-30-days",
        "lat": 42.8456855403546,
        "lon": -140.80567779384745,
        "alt_km": 409.49164316260703,
        "timestamp": "2025-12-10T09:57:43.489376+00:00",
        "meta_object_name": "STARLINK-35825",
        "meta_object_id": "2025-268L",
        "meta_epoch": "2025-12-10T04:00:01.998720",
        "meta_mean_motion": 15.50661119,
        "meta_eccentricity": 0.0001805,
        "meta_inclination": 43.0004,
        "meta_ra_of_asc_node": 136.198,
        "meta_arg_of_pericenter": 274.5408,
        "meta_mean_anomaly": 223.1294,
        "meta_ephemeris_type": 0,
        "meta_classification_type": "U",
        "meta_norad_cat_id": 66567,
        "meta_element_set_no": 999,
        "meta_rev_at_epoch": 425,
        "meta_bstar": -0.0032594,
        "meta_mean_motion_dot": -0.00187604,
        "meta_mean_motion_ddot": 0,
        "tle_line1": "1 66567U 25268L   25344.16668980 -.00187604  00000+0 -32594-2 0  9997",
        "tle_line2": "2 66567  43.0004 136.1980 0001805 274.5408 223.1294 15.50661119  4254"
      },
      "geometry": {
        "type": "Point",
        "coordinates": [
          -140.80567779384745,
          42.8456855403546
        ]
      }
    },
    {
      "type": "Feature",
      "properties": {
        "norad_id": 66568,
        "name": "STARLINK-35803",
        "group": "last-30-days",
        "lat": 42.94245027924525,
        "lon": -138.19537492595845,
        "alt_km": 409.43130394304535,
        "timestamp": "2025-12-10T09:57:43.489387+00:00",
        "meta_object_name": "STARLINK-35803",
        "meta_object_id": "2025-268M",
        "meta_epoch": "2025-12-10T04:00:01.998720",
        "meta_mean_motion": 15.50660386,
        "meta_eccentricity": 0.0001715,
        "meta_inclination": 43.0004,
        "meta_ra_of_asc_node": 136.1929,
        "meta_arg_of_pericenter": 271.9784,
        "meta_mean_anomaly": 227.6099,
        "meta_ephemeris_type": 0,
        "meta_classification_type": "U",
        "meta_norad_cat_id": 66568,
        "meta_element_set_no": 999,
        "meta_rev_at_epoch": 425,
        "meta_bstar": -0.0032547,
        "meta_mean_motion_dot": -0.00187332,
        "meta_mean_motion_ddot": 0,
        "tle_line1": "1 66568U 25268M   25344.16668980 -.00187332  00000+0 -32547-2 0  9994",
        "tle_line2": "2 66568  43.0004 136.1929 0001715 271.9784 227.6099 15.50660386  4253"
      },
      "geometry": {
        "type": "Point",
        "coordinates": [
          -138.19537492595845,
          42.94245027924525
        ]
      }
    },
    {
      "type": "Feature",
      "properties": {
        "norad_id": 66569,
        "name": "STARLINK-35835",
        "group": "last-30-days",
        "lat": 42.97962077723752,
        "lon": -135.58141802172602,
        "alt_km": 409.4317650274925,
        "timestamp": "2025-12-10T09:57:43.489397+00:00",
        "meta_object_name": "STARLINK-35835",
        "meta_object_id": "2025-268N",
        "meta_epoch": "2025-12-10T04:00:01.998720",
        "meta_mean_motion": 15.50659219,
        "meta_eccentricity": 0.0001728,
        "meta_inclination": 43.0005,
        "meta_ra_of_asc_node": 136.1883,
        "meta_arg_of_pericenter": 273.7493,
        "meta_mean_anomaly": 227.7531,
        "meta_ephemeris_type": 0,
        "meta_classification_type": "U",
        "meta_norad_cat_id": 66569,
        "meta_element_set_no": 999,
        "meta_rev_at_epoch": 425,
        "meta_bstar": -0.0031851,
        "meta_mean_motion_dot": -0.00183419,
        "meta_mean_motion_ddot": 0,
        "tle_line1": "1 66569U 25268N   25344.16668980 -.00183419  00000+0 -31851-2 0  9994",
        "tle_line2": "2 66569  43.0005 136.1883 0001728 273.7493 227.7531 15.50659219  4250"
      },
      "geometry": {
        "type": "Point",
        "coordinates": [
          -135.58141802172602,
          42.97962077723752
        ]
      }
    },
    {
      "type": "Feature",
      "properties": {
        "norad_id": 66570,
        "name": "STARLINK-35834",
        "group": "last-30-days",
        "lat": 42.95741020192264,
        "lon": -132.97932689458952,
        "alt_km": 409.44877067264497,
        "timestamp": "2025-12-10T09:57:43.489407+00:00",
        "meta_object_name": "STARLINK-35834",
        "meta_object_id": "2025-268P",
        "meta_epoch": "2025-12-10T04:00:01.998720",
        "meta_mean_motion": 15.50593035,
        "meta_eccentricity": 0.0001676,
        "meta_inclination": 43.0007,
        "meta_ra_of_asc_node": 136.1831,
        "meta_arg_of_pericenter": 271.0116,
        "meta_mean_anomaly": 232.4356,
        "meta_ephemeris_type": 0,
        "meta_classification_type": "U",
        "meta_norad_cat_id": 66570,
        "meta_element_set_no": 999,
        "meta_rev_at_epoch": 425,
        "meta_bstar": -0.0015525,
        "meta_mean_motion_dot": -0.00090419,
        "meta_mean_motion_ddot": 0,
        "tle_line1": "1 66570U 25268P   25344.16668980 -.00090419  00000+0 -15525-2 0  9993",
        "tle_line2": "2 66570  43.0007 136.1831 0001676 271.0116 232.4356 15.50593035  4253"
      },
      "geometry": {
        "type": "Point",
        "coordinates": [
          -132.97932689458952,
          42.95741020192264
        ]
      }
    },
    {
      "type": "Feature",
      "properties": {
        "norad_id": 66571,
        "name": "STARLINK-35836",
        "group": "last-30-days",
        "lat": 42.87420793044854,
        "lon": -130.339061411509,
        "alt_km": 409.58212258907315,
        "timestamp": "2025-12-10T09:57:43.489417+00:00",
        "meta_object_name": "STARLINK-35836",
        "meta_object_id": "2025-268Q",
        "meta_epoch": "2025-12-10T04:00:01.998720",
        "meta_mean_motion": 15.50626387,
        "meta_eccentricity": 0.0001812,
        "meta_inclination": 43.0008,
        "meta_ra_of_asc_node": 136.1785,
        "meta_arg_of_pericenter": 266.8439,
        "meta_mean_anomaly": 238.5302,
        "meta_ephemeris_type": 0,
        "meta_classification_type": "U",
        "meta_norad_cat_id": 66571,
        "meta_element_set_no": 999,
        "meta_rev_at_epoch": 425,
        "meta_bstar": -0.0029751,
        "meta_mean_motion_dot": -0.00171408,
        "meta_mean_motion_ddot": 0,
        "tle_line1": "1 66571U 25268Q   25344.16668980 -.00171408  00000+0 -29751-2 0  9998",
        "tle_line2": "2 66571  43.0008 136.1785 0001812 266.8439 238.5302 15.50626387  4250"
      },
      "geometry": {
        "type": "Point",
        "coordinates": [
          -130.339061411509,
          42.87420793044854
        ]
      }
    },
    {
      "type": "Feature",
      "properties": {
        "norad_id": 66572,
        "name": "STARLINK-35870",
        "group": "last-30-days",
        "lat": 42.72999158604107,
        "lon": -127.71011660879813,
        "alt_km": 409.556287564169,
        "timestamp": "2025-12-10T09:57:43.489427+00:00",
        "meta_object_name": "STARLINK-35870",
        "meta_object_id": "2025-268R",
        "meta_epoch": "2025-12-10T04:00:01.998720",
        "meta_mean_motion": 15.50640093,
        "meta_eccentricity": 0.0001688,
        "meta_inclination": 43.0004,
        "meta_ra_of_asc_node": 136.1747,
        "meta_arg_of_pericenter": 273.2806,
        "meta_mean_anomaly": 234.024,
        "meta_ephemeris_type": 0,
        "meta_classification_type": "U",
        "meta_norad_cat_id": 66572,
        "meta_element_set_no": 999,
        "meta_rev_at_epoch": 425,
        "meta_bstar": -0.0037575,
        "meta_mean_motion_dot": -0.00215302,
        "meta_mean_motion_ddot": 0,
        "tle_line1": "1 66572U 25268R   25344.16668980 -.00215302  00000+0 -37575-2 0  9994",
        "tle_line2": "2 66572  43.0004 136.1747 0001688 273.2806 234.0240 15.50640093  4258"
      },
      "geometry": {
        "type": "Point",
        "coordinates": [
          -127.71011660879813,
          42.72999158604107
        ]
      }
    }
  ]
}